[
    {
        "Altitude(m)": 558749.6727923773,
        "Argument of Periapsis(deg)": 0.019868973332140504,
        "Eccentricity": 0.0,
        "Inclination(deg)": 53.0,
        "Latitude(deg)": 48.12839354193099,
        "Longitude(deg)": 24.348598041154265,
        "Mean Anomaly(deg)": 68.45667860273277,
        "RAAN(deg)": 69.97043010558404,
        "Satellite Name": "Starlink Shell 1 310",
        "Satellite Number": 310,
        "Semi-Major Axis(m)": 6931778.249405717,
        "Time(s)": 570
    },
    {
        "Altitude(m)": 558811.9370263466,
        "Argument of Periapsis(deg)": 0.02021755181165174,
        "Eccentricity": 0.0,
        "Inclination(deg)": 53.0,
        "Latitude(deg)": 48.40023227732369,
        "Longitude(deg)": 25.153875082293666,
        "Mean Anomaly(deg)": 69.0835098062895,
        "RAAN(deg)": 69.96991133550658,
        "Satellite Name": "Starlink Shell 1 310",
        "Satellite Number": 310,
        "Semi-Major Axis(m)": 6931778.249405717,
        "Time(s)": 580
    },
    {
        "Altitude(m)": 558872.7907221323,
        "Argument of Periapsis(deg)": 0.020566130291162974,
        "Eccentricity": 0.0,
        "Inclination(deg)": 53.0,
        "Latitude(deg)": 48.665765769906095,
        "Longitude(deg)": 25.96810787602536,
        "Mean Anomaly(deg)": 69.7103410098462,
        "RAAN(deg)": 69.9693925654291,
        "Satellite Name": "Starlink Shell 1 310",
        "Satellite Number": 310,
        "Semi-Major Axis(m)": 6931778.249405717,
        "Time(s)": 590
    },
    {
        "Altitude(m)": 558932.1966283092,
        "Argument of Periapsis(deg)": 0.020914708770674213,
        "Eccentricity": 0.0,
        "Inclination(deg)": 53.0,
        "Latitude(deg)": 48.924869394223556,
        "Longitude(deg)": 26.791259061299346,
        "Mean Anomaly(deg)": 70.33717221340291,
        "RAAN(deg)": 69.96887379535163,
        "Satellite Name": "Starlink Shell 1 310",
        "Satellite Number": 310,
        "Semi-Major Axis(m)": 6931778.249405717,
        "Time(s)": 600
    },
    {
        "Altitude(m)": 558990.1184299685,
        "Argument of Periapsis(deg)": 0.021263287250185448,
        "Eccentricity": 0.0,
        "Inclination(deg)": 53.0,
        "Latitude(deg)": 49.17741845951205,
        "Longitude(deg)": 27.623278554129737,
        "Mean Anomaly(deg)": 70.96400341695963,
        "RAAN(deg)": 69.96835502527416,
        "Satellite Name": "Starlink Shell 1 310",
        "Satellite Number": 310,
        "Semi-Major Axis(m)": 6931778.249405717,
        "Time(s)": 610
    },
    {
        "Altitude(m)": 559046.5207666511,
        "Argument of Periapsis(deg)": 0.021611865729696686,
        "Eccentricity": 0.0,
        "Inclination(deg)": 53.0,
        "Latitude(deg)": 49.423288404567764,
        "Longitude(deg)": 28.46410353533206,
        "Mean Anomaly(deg)": 71.59083462051633,
        "RAAN(deg)": 69.96783625519669,
        "Satellite Name": "Starlink Shell 1 310",
        "Satellite Number": 310,
        "Semi-Major Axis(m)": 6931778.249405717,
        "Time(s)": 620
    },
    {
        "Altitude(m)": 559101.3692497374,
        "Argument of Periapsis(deg)": 0.02196044420920792,
        "Eccentricity": 0.0,
        "Inclination(deg)": 53.0,
        "Latitude(deg)": 49.662355003637124,
        "Longitude(deg)": 29.313656778208312,
        "Mean Anomaly(deg)": 72.21766582407304,
        "RAAN(deg)": 69.96731748511921,
        "Satellite Name": "Starlink Shell 1 310",
        "Satellite Number": 310,
        "Semi-Major Axis(m)": 6931778.249405717,
        "Time(s)": 630
    },
    {
        "Altitude(m)": 559154.6304794032,
        "Argument of Periapsis(deg)": 0.02230902268871916,
        "Eccentricity": 0.0,
        "Inclination(deg)": 53.0,
        "Latitude(deg)": 49.89449458308178,
        "Longitude(deg)": 30.171847523320512,
        "Mean Anomaly(deg)": 72.84449702762976,
        "RAAN(deg)": 69.96679871504175,
        "Satellite Name": "Starlink Shell 1 310",
        "Satellite Number": 310,
        "Semi-Major Axis(m)": 6931778.249405717,
        "Time(s)": 640
    },
    {
        "Altitude(m)": 559206.2720610367,
        "Argument of Periapsis(deg)": 0.022657601168230398,
        "Eccentricity": 0.0,
        "Inclination(deg)": 53.0,
        "Latitude(deg)": 50.119584248456775,
        "Longitude(deg)": 31.03856986234169,
        "Mean Anomaly(deg)": 73.47132823118645,
        "RAAN(deg)": 69.96627994496427,
        "Satellite Name": "Starlink Shell 1 310",
        "Satellite Number": 310,
        "Semi-Major Axis(m)": 6931778.249405717,
        "Time(s)": 650
    },
    {
        "Altitude(m)": 559256.2626211735,
        "Argument of Periapsis(deg)": 0.023006179647741636,
        "Eccentricity": 0.0,
        "Inclination(deg)": 53.0,
        "Latitude(deg)": 50.33750212155018,
        "Longitude(deg)": 31.913702838475704,
        "Mean Anomaly(deg)": 74.09815943474321,
        "RAAN(deg)": 69.96576117488678,
        "Satellite Name": "Starlink Shell 1 310",
        "Satellite Number": 310,
        "Semi-Major Axis(m)": 6931778.249405717,
        "Time(s)": 660
    },
    {
        "Altitude(m)": 559304.5718229014,
        "Argument of Periapsis(deg)": 0.023354758127252868,
        "Eccentricity": 0.0,
        "Inclination(deg)": 53.0,
        "Latitude(deg)": 50.54812758681238,
        "Longitude(deg)": 32.79711058764188,
        "Mean Anomaly(deg)": 74.72499063829993,
        "RAAN(deg)": 69.96524240480933,
        "Satellite Name": "Starlink Shell 1 310",
        "Satellite Number": 310,
        "Semi-Major Axis(m)": 6931778.249405717,
        "Time(s)": 670
    },
    {
        "Altitude(m)": 559351.1703807516,
        "Argument of Periapsis(deg)": 0.023703336606764106,
        "Eccentricity": 0.0,
        "Inclination(deg)": 53.0,
        "Latitude(deg)": 50.75134154648747,
        "Longitude(deg)": 33.68864101277969,
        "Mean Anomaly(deg)": 75.35182184185663,
        "RAAN(deg)": 69.96472363473184,
        "Satellite Name": "Starlink Shell 1 310",
        "Satellite Number": 310,
        "Semi-Major Axis(m)": 6931778.249405717,
        "Time(s)": 680
    },
    {
        "Altitude(m)": 559396.0300750821,
        "Argument of Periapsis(deg)": 0.024051915086275345,
        "Eccentricity": 0.0,
        "Inclination(deg)": 53.0,
        "Latitude(deg)": 50.947026683649604,
        "Longitude(deg)": 34.58812602224655,
        "Mean Anomaly(deg)": 75.97865304541334,
        "RAAN(deg)": 69.96420486465436,
        "Satellite Name": "Starlink Shell 1 310",
        "Satellite Number": 310,
        "Semi-Major Axis(m)": 6931778.249405717,
        "Time(s)": 690
    },
    {
        "Altitude(m)": 559439.1237658934,
        "Argument of Periapsis(deg)": 0.024400493565786583,
        "Eccentricity": 0.0,
        "Inclination(deg)": 53.0,
        "Latitude(deg)": 51.13506773221987,
        "Longitude(deg)": 35.495381824594666,
        "Mean Anomaly(deg)": 76.60548424897004,
        "RAAN(deg)": 69.9636860945769,
        "Satellite Name": "Starlink Shell 1 310",
        "Satellite Number": 310,
        "Semi-Major Axis(m)": 6931778.249405717,
        "Time(s)": 700
    },
    {
        "Altitude(m)": 559480.4254061433,
        "Argument of Periapsis(deg)": 0.024749072045297815,
        "Eccentricity": 0.0,
        "Inclination(deg)": 53.0,
        "Latitude(deg)": 51.315351752919824,
        "Longitude(deg)": 36.41020777187387,
        "Mean Anomaly(deg)": 77.23231545252678,
        "RAAN(deg)": 69.96316732449942,
        "Satellite Name": "Starlink Shell 1 310",
        "Satellite Number": 310,
        "Semi-Major Axis(m)": 6931778.249405717,
        "Time(s)": 710
    },
    {
        "Altitude(m)": 559519.9100544924,
        "Argument of Periapsis(deg)": 0.025097650524809053,
        "Eccentricity": 0.0,
        "Inclination(deg)": 53.0,
        "Latitude(deg)": 51.4877684140076,
        "Longitude(deg)": 37.33238678202079,
        "Mean Anomaly(deg)": 77.85914665608348,
        "RAAN(deg)": 69.96264855442195,
        "Satellite Name": "Starlink Shell 1 310",
        "Satellite Number": 310,
        "Semi-Major Axis(m)": 6931778.249405717,
        "Time(s)": 720
    },
    {
        "Altitude(m)": 559557.5538875245,
        "Argument of Periapsis(deg)": 0.02544622900432029,
        "Eccentricity": 0.0,
        "Inclination(deg)": 53.0,
        "Latitude(deg)": 51.652210275520076,
        "Longitude(deg)": 38.26168583197725,
        "Mean Anomaly(deg)": 78.48597785964019,
        "RAAN(deg)": 69.96212978434448,
        "Satellite Name": "Starlink Shell 1 310",
        "Satellite Number": 310,
        "Semi-Major Axis(m)": 6931778.249405717,
        "Time(s)": 730
    },
    {
        "Altitude(m)": 559593.3342113831,
        "Argument of Periapsis(deg)": 0.02579480748383153,
        "Eccentricity": 0.0,
        "Inclination(deg)": 53.0,
        "Latitude(deg)": 51.808573075636566,
        "Longitude(deg)": 39.19785501280974,
        "Mean Anomaly(deg)": 79.1128090631969,
        "RAAN(deg)": 69.961611014267,
        "Satellite Name": "Starlink Shell 1 310",
        "Satellite Number": 310,
        "Semi-Major Axis(m)": 6931778.249405717,
        "Time(s)": 740
    },
    {
        "Altitude(m)": 559627.2294728765,
        "Argument of Periapsis(deg)": 0.026143385963342765,
        "Eccentricity": 0.0,
        "Inclination(deg)": 53.0,
        "Latitude(deg)": 51.95675601768466,
        "Longitude(deg)": 40.14062817626893,
        "Mean Anomaly(deg)": 79.73964026675363,
        "RAAN(deg)": 69.96109224418953,
        "Satellite Name": "Starlink Shell 1 310",
        "Satellite Number": 310,
        "Semi-Major Axis(m)": 6931778.249405717,
        "Time(s)": 750
    }
]